STARLINK-5064           
1 55428U 23014AP  26068.46327408  .00000709  00000+0  67171-4 0  9991
2 55428  69.9988  85.2168 0003233 269.8115  90.2673 14.98334080171521
SATELIOT_3              
1 60552U 24149CN  26068.79802274  .00002865  00000+0  25003-3 0  9992
2 60552  97.6866 147.0596 0005831  63.3535 296.8284 14.97601684 85206
